ONEWEB-0716             
1 55177U 23004AP  25273.41939948  .00000284  00000+0  69957-3 0  9992
2 55177  87.9064  57.5376 0001158  82.5172 277.6092 13.17645812133372
ONEWEB-0717             
1 55178U 23004AQ  25273.47844731  .00000004  00000+0 -23423-4 0  9994
2 55178  87.9079  57.4896 0002358  85.5504 274.5897 13.17650583133437
ONEWEB-0719             
1 55179U 23004AR  25273.48858691  .00000081  00000+0  17572-3 0  9997
2 55179  87.9079  57.4706 0001490  88.9901 271.1402 13.17648914133386
ONEWEB-0530             
1 55796U 23029A   25273.39617326  .00000053  00000+0  98146-4 0  9993
2 55796  87.9247 326.2893 0002165  84.4947 275.6433 13.20772886126850
ONEWEB-0534             
1 55797U 23029B   25273.08051502  .00000063  00000+0  12280-3 0  9993
2 55797  87.9239 326.3553 0001733  95.4635 264.6696 13.20772027126814
ONEWEB-0556             
1 55798U 23029C   25273.38986997  .00000055  00000+0  10249-3 0  9996
2 55798  87.9248 326.2897 0001510  75.5448 284.5853 13.20772669126851
ONEWEB-0562             
1 55799U 23029D   25273.37724678  .00000037  00000+0  59349-4 0  9997
2 55799  87.9241 326.2784 0002115  72.8767 287.2598 13.20770977126852
ONEWEB-0563             
1 55800U 23029E   25273.52243154  .00000008  00000+0 -13078-4 0  9990
2 55800  87.9251 326.2725 0001602  98.7098 261.4217 13.20772201126860
